NORAD_CAT_ID,OBJECT_NAME,OBJECT_TYPE,EPOCH,MEAN_MOTION,ECCENTRICITY,INCLINATION,RA_OF_ASC_NODE,ARG_OF_PERICENTER,MEAN_ANOMALY,BSTAR,MEAN_MOTION_DOT,MEAN_MOTION_DDOT,TLE_LINE0,TLE_LINE1,TLE_LINE2,SEMIMAJOR_AXIS,PERIOD,APOGEE,PERIGEE,DECAYED
52301.0,STARLINK-3768,PAYLOAD,2024-05-03 14:57:48,15.08838285,0.0001234,53.2189,249.6112,100.3524,259.7607,0.00028171,4.198e-05,0.0,0 STARLINK-3768,1 52301U 22041AS  24124.62347359  .00004198  00000-0  28171-3 0  9996,2 52301  53.2189 249.6112 0001234 100.3524 259.7607 15.08838285112593,6917.886,95.438,540.604,538.897,0.0
52301.0,STARLINK-3768,PAYLOAD,2024-05-03 18:08:33,15.08890311,0.0002021,53.2187,249.0162,102.9797,257.142,-0.0004288,-7.116e-05,0.0,0 STARLINK-3768,1 52301U 22041AS  24124.75594002 -.00007116  00000-0 -42880-3 0  9997,2 52301  53.2187 249.0162 0002021 102.9797 257.1420 15.08890311113825,6917.727,95.434,540.99,538.194,0.0
52301.0,STARLINK-3768,PAYLOAD,2024-05-04 13:13:12,15.08827779,0.0001312,53.2174,245.4493,107.0229,253.0907,0.00010202,1.336e-05,0.0,0 STARLINK-3768,1 52301U 22041AS  24125.55084466  .00001336  00000-0  10202-3 0  9993,2 52301  53.2174 245.4493 0001312 107.0229 253.0907 15.08827779113942,6917.918,95.438,540.69,538.875,0.0
52301.0,STARLINK-3768,PAYLOAD,2024-05-05 13:04:01,15.08827584,0.0001373,53.2193,240.9895,102.2921,257.8225,-0.00015226,-2.709e-05,0.0,0 STARLINK-3768,1 52301U 22041AS  24126.54445814 -.00002709  00000-0 -15226-3 0  9999,2 52301  53.2193 240.9895 0001373 102.2921 257.8225 15.08827584114098,6917.918,95.438,540.733,538.834,0.0
52301.0,STARLINK-3768,PAYLOAD,2024-05-06 00:11:42,15.08836354,0.0001273,53.2188,238.9076,101.7097,258.4038,-7.7942e-05,-1.528e-05,0.0,0 STARLINK-3768,1 52301U 22041AS  24127.00813227 -.00001528  00000-0 -77942-4 0  9990,2 52301  53.2188 238.9076 0001273 101.7097 258.4038 15.08836354114169,6917.892,95.438,540.637,538.876,0.0
52301.0,STARLINK-3768,PAYLOAD,2024-05-06 12:54:46,15.08841698,0.0001366,53.2193,236.5315,108.8436,251.2704,0.00027438,4.082e-05,0.0,0 STARLINK-3768,1 52301U 22041AS  24127.53804252  .00004082  00000-0  27438-3 0  9996,2 52301  53.2193 236.5315 0001366 108.8436 251.2704 15.08841698114240,6917.875,95.437,540.685,538.795,0.0
52301.0,STARLINK-3768,PAYLOAD,2024-05-06 14:30:09,15.08844394,0.0001319,53.2191,236.2349,111.4056,248.7077,0.00030037,4.496e-05,0.0,0 STARLINK-3768,1 52301U 22041AS  24127.60428052  .00004496  00000-0  30037-3 0  9992,2 52301  53.2191 236.2349 0001319 111.4056 248.7077 15.08844394113045,6917.867,95.437,540.644,538.819,0.0
52301.0,STARLINK-3768,PAYLOAD,2024-05-07 12:45:35,15.08824075,0.0001082,53.2179,232.0676,90.4284,269.6832,9.5789e-05,1.236e-05,0.0,0 STARLINK-3768,1 52301U 22041AS  24128.53165814  .00001236  00000-0  95789-4 0  9994,2 52301  53.2179 232.0676 0001082  90.4284 269.6832 15.08824075114398,6917.929,95.439,540.543,539.046,0.0
52301.0,STARLINK-3768,PAYLOAD,2024-05-07 14:20:57,15.08832605,0.0001069,53.2172,231.7681,101.681,258.4302,8.8317e-05,1.118e-05,0.0,0 STARLINK-3768,1 52301U 22041AS  24128.59789318  .00001118  00000-0  88317-4 0  9999,2 52301  53.2172 231.7681 0001069 101.6810 258.4302 15.08832605113191,6917.903,95.438,540.508,539.028,0.0
52301.0,STARLINK-3768,PAYLOAD,2024-05-07 17:31:44,15.08828589,0.0001072,53.2182,231.1752,89.3921,270.7194,0.00011973,1.618e-05,0.0,0 STARLINK-3768,1 52301U 22041AS  24128.73037627  .00001618  00000-0  11973-3 0  9992,2 52301  53.2182 231.1752 0001072  89.3921 270.7194 15.08828589113219,6917.915,95.438,540.522,539.039,0.0
52301.0,STARLINK-3768,PAYLOAD,2024-05-08 12:36:21,15.0884257,0.0001108,53.2171,227.6069,96.3355,263.7764,9.0697e-05,1.156e-05,0.0,0 STARLINK-3768,1 52301U 22041AS  24129.52524895  .00001156  00000-0  90697-4 0  9996,2 52301  53.2171 227.6069 0001108  96.3355 263.7764 15.08842570114545,6917.873,95.437,540.504,538.971,0.0
52301.0,STARLINK-3768,PAYLOAD,2024-05-08 14:11:44,15.08857859,8.97e-05,53.217,227.3101,86.9272,273.1823,-2.2082e-05,-6.39e-06,0.0,0 STARLINK-3768,1 52301U 22041AS  24129.59148263 -.00000639  00000-0 -22082-4 0  9994,2 52301  53.2170 227.3101 0000897  86.9272 273.1823 15.08857859113349,6917.826,95.436,540.311,539.07,0.0
52301.0,STARLINK-3768,PAYLOAD,2024-05-09 12:27:08,15.08842819,0.0001178,53.2173,223.1485,60.4166,299.6943,0.00023589,3.469e-05,0.0,0 STARLINK-3768,1 52301U 22041AS  24130.51884350  .00003469  00000-0  23589-3 0  9996,2 52301  53.2173 223.1485 0001178  60.4166 299.6943 15.08842819114698,6917.872,95.437,540.552,538.922,0.0
52301.0,STARLINK-3768,PAYLOAD,2024-05-10 12:17:55,15.08843558,0.0001114,53.2183,218.687,86.359,273.7529,-1.934e-06,-3.19e-06,0.0,0 STARLINK-3768,1 52301U 22041AS  24131.51244965 -.00000319  00000-0 -19340-5 0  9994,2 52301  53.2183 218.6870 0001114  86.3590 273.7529 15.08843558114845,6917.87,95.437,540.505,538.964,0.0
52301.0,STARLINK-3768,PAYLOAD,2024-05-10 15:28:41,15.08845852,0.0001144,53.2182,218.0918,89.1651,270.9473,1.8784e-05,1.1e-07,0.0,0 STARLINK-3768,1 52301U 22041AS  24131.64492705  .00000011  00000-0  18784-4 0  9992,2 52301  53.2182 218.0918 0001144  89.1651 270.9473 15.08845852113657,6917.863,95.437,540.519,538.936,0.0
52301.0,STARLINK-3768,PAYLOAD,2024-05-11 12:08:40,15.08867459,0.0001329,53.2177,214.2278,97.354,262.7603,0.00033299,5.019e-05,0.0,0 STARLINK-3768,1 52301U 22041AS  24132.50602712  .00005019  00000-0  33299-3 0  9999,2 52301  53.2177 214.2278 0001329  97.3540 262.7603 15.08867459114990,6917.796,95.436,540.581,538.742,0.0
52301.0,STARLINK-3768,PAYLOAD,2024-05-11 15:19:26,15.08867982,0.0001351,53.2178,213.6327,98.3095,261.805,0.00031802,4.781e-05,0.0,0 STARLINK-3768,1 52301U 22041AS  24132.63850444  .00004781  00000-0  31802-3 0  9993,2 52301  53.2178 213.6327 0001351  98.3095 261.8050 15.08867982113806,6917.795,95.436,540.594,538.725,0.0
52301.0,STARLINK-3768,PAYLOAD,2024-05-12 05:38:01,15.08757593,0.000142,53.2172,210.9574,91.6108,268.5047,-0.00096001,-0.00015499,0.0,0 STARLINK-3768,1 52301U 22041AS  24133.23473937 -.00015499  00000-0 -96001-3 0  9990,2 52301  53.2172 210.9574 0001420  91.6108 268.5047 15.08757593115103,6918.132,95.443,540.98,539.015,0.0
52301.0,STARLINK-3768,PAYLOAD,2024-05-12 11:59:36,15.08661379,0.0001286,53.2166,209.7676,97.9442,262.1696,-0.0035402,-0.00055919,0.0,0 STARLINK-3768,1 52301U 22041AS  24133.49972243 -.00055919  00000-0 -35402-2 0  9990,2 52301  53.2166 209.7676 0001286  97.9442 262.1696 15.08661379115145,6918.426,95.449,541.181,539.402,0.0
52301.0,STARLINK-3768,PAYLOAD,2024-05-12 15:10:23,15.08627133,0.0001344,53.217,209.1732,101.6154,258.4989,-0.0029363,-0.00046447,0.0,0 STARLINK-3768,1 52301U 22041AS  24133.63222165 -.00046447  00000-0 -29363-2 0  9992,2 52301  53.2170 209.1732 0001344 101.6154 258.4989 15.08627133115160,6918.531,95.451,541.326,539.466,0.0
52301.0,STARLINK-3768,PAYLOAD,2024-05-12 21:32:00,15.08606194,0.0001449,53.217,207.9843,104.1644,255.9509,-0.00092681,-0.00014913,0.0,0 STARLINK-3768,1 52301U 22041AS  24133.89722924 -.00014913  00000-0 -92681-3 0  9995,2 52301  53.2170 207.9843 0001449 104.1644 255.9509 15.08606194113990,6918.595,95.452,541.463,539.458,0.0
52301.0,STARLINK-3768,PAYLOAD,2024-05-13 05:28:57,15.08736253,6.53e-05,53.218,206.4967,25.7995,334.303,0.0049292,0.00078814,0.0,0 STARLINK-3768,1 52301U 22041AS  24134.22843769  .00078814  00000-0  49292-2 0  9991,2 52301  53.2180 206.4967 0000653  25.7995 334.3030 15.08736253115257,6918.198,95.444,540.514,539.611,0.0
52301.0,STARLINK-3768,PAYLOAD,2024-05-13 11:50:29,15.08811834,0.0001459,53.2175,205.3078,92.3063,267.8096,0.0057514,0.00092376,0.0,0 STARLINK-3768,1 52301U 22041AS  24134.49339579  .00092376  00000-0  57514-2 0  9994,2 52301  53.2175 205.3078 0001459  92.3063 267.8096 15.08811834115298,6917.966,95.439,540.841,538.822,0.0
52301.0,STARLINK-3768,PAYLOAD,2024-05-14 03:44:18,15.08875561,0.000132,53.2163,202.3324,90.2155,269.8989,0.0023483,0.0003732,0.0,0 STARLINK-3768,1 52301U 22041AS  24135.15576820  .00037320  00000-0  23483-2 0  9996,2 52301  53.2163 202.3324 0001320  90.2155 269.8989 15.08875561115393,6917.772,95.435,540.55,538.724,0.0
52301.0,STARLINK-3768,PAYLOAD,2024-05-14 11:41:12,15.08913185,0.0001286,53.2162,200.847,92.3131,267.8009,0.001597,0.00025271,0.0,0 STARLINK-3768,1 52301U 22041AS  24135.48694456  .00025271  00000-0  15970-2 0  9992,2 52301  53.2162 200.8470 0001286  92.3131 267.8009 15.08913185115447,6917.657,95.433,540.411,538.632,0.0
52301.0,STARLINK-3768,PAYLOAD,2024-05-14 21:13:28,15.08943531,0.0001297,53.2162,199.0621,78.9642,281.1496,0.0010407,0.0001636,0.0,0 STARLINK-3768,1 52301U 22041AS  24135.88435279  .00016360  00000-0  10407-2 0  9991,2 52301  53.2162 199.0621 0001297  78.9642 281.1496 15.08943531114292,6917.564,95.431,540.326,538.532,0.0
52301.0,STARLINK-3768,PAYLOAD,2024-05-15 11:31:53,15.0893219,0.0001431,53.2166,196.3866,82.8828,277.2327,0.00042325,6.471e-05,0.0,0 STARLINK-3768,1 52301U 22041AS  24136.48048007  .00006471  00000-0  42325-3 0  9994,2 52301  53.2166 196.3866 0001431  82.8828 277.2327 15.08932190115599,6917.599,95.432,540.454,538.474,0.0
52301.0,STARLINK-3768,PAYLOAD,2024-05-15 21:04:10,15.08937276,0.0001447,53.2164,194.6028,85.6454,274.4704,0.00038,5.781e-05,0.0,0 STARLINK-3768,1 52301U 22041AS  24136.87789445  .00005781  00000-0  38000-3 0  9993,2 52301  53.2164 194.6028 0001447  85.6454 274.4704 15.08937276114442,6917.583,95.431,540.449,538.447,0.0
52301.0,STARLINK-3768,PAYLOAD,2024-05-16 11:22:37,15.08884209,0.0001262,53.2157,191.9243,99.4441,260.6694,-0.00048417,-7.995e-05,0.0,0 STARLINK-3768,1 52301U 22041AS  24137.47404621 -.00007995  00000-0 -48417-3 0  9994,2 52301  53.2157 191.9243 0001262  99.4441 260.6694 15.08884209115743,6917.745,95.435,540.483,538.737,0.0
52301.0,STARLINK-3768,PAYLOAD,2024-05-16 20:54:55,15.08879732,0.0001381,53.2158,190.1404,88.7148,271.4002,0.00067008,0.00010404,0.0,0 STARLINK-3768,1 52301U 22041AS  24137.87147982  .00010404  00000-0  67008-3 0  9996,2 52301  53.2158 190.1404 0001381  88.7148 271.4002 15.08879732114591,6917.759,95.435,540.579,538.669,0.0
